CCSDS_OMM_VERS = 2.0
CREATION_DATE  = 
ORIGINATOR     = 

OBJECT_NAME    = ATLAS CENTAUR R/B
OBJECT_ID      = 1972-065B
CENTER_NAME    = EARTH
REF_FRAME      = TEME
TIME_SYSTEM    = UTC
MEAN_ELEMENT_THEORY = SGP/SGP4

EPOCH          = 2025-11-13T07:54:13.965120
MEAN_MOTION    = 14.77298935
ECCENTRICITY   = .0033111
INCLINATION    = 35.0017
RA_OF_ASC_NODE = 267.4649
ARG_OF_PERICENTER = 112.0639
MEAN_ANOMALY   = 248.3583

EPHEMERIS_TYPE = 0
CLASSIFICATION_TYPE = U
NORAD_CAT_ID   = 6155
ELEMENT_SET_NO = 999
REV_AT_EPOCH   = 82404
BSTAR          = .47213E-3
MEAN_MOTION_DOT = .3415E-4
MEAN_MOTION_DDOT = 0

CCSDS_OMM_VERS = 2.0
CREATION_DATE  = 
ORIGINATOR     = 

OBJECT_NAME    = SL-8 R/B
OBJECT_ID      = 1975-112B
CENTER_NAME    = EARTH
REF_FRAME      = TEME
TIME_SYSTEM    = UTC
MEAN_ELEMENT_THEORY = SGP/SGP4

EPOCH          = 2025-11-13T18:04:51.517056
MEAN_MOTION    = 14.38119127
ECCENTRICITY   = .00157843
INCLINATION    = 74.0610
RA_OF_ASC_NODE = 232.1708
ARG_OF_PERICENTER = 347.6237
MEAN_ANOMALY   = 12.4527

EPHEMERIS_TYPE = 0
CLASSIFICATION_TYPE = U
NORAD_CAT_ID   = 8459
ELEMENT_SET_NO = 999
REV_AT_EPOCH   = 61520
BSTAR          = .2580824E-3
MEAN_MOTION_DOT = .757E-5
MEAN_MOTION_DDOT = 0

CCSDS_OMM_VERS = 2.0
CREATION_DATE  = 
ORIGINATOR     = 

OBJECT_NAME    = SL-3 R/B
OBJECT_ID      = 1977-057B
CENTER_NAME    = EARTH
REF_FRAME      = TEME
TIME_SYSTEM    = UTC
MEAN_ELEMENT_THEORY = SGP/SGP4

EPOCH          = 2025-11-13T21:17:59.057376
MEAN_MOTION    = 15.42036420
ECCENTRICITY   = .00074203
INCLINATION    = 97.5679
RA_OF_ASC_NODE = 120.1145
ARG_OF_PERICENTER = 350.8070
MEAN_ANOMALY   = 9.3040

EPHEMERIS_TYPE = 0
CLASSIFICATION_TYPE = U
NORAD_CAT_ID   = 10114
ELEMENT_SET_NO = 999
REV_AT_EPOCH   = 65046
BSTAR          = .49689991E-3
MEAN_MOTION_DOT = .21167E-3
MEAN_MOTION_DDOT = 0

CCSDS_OMM_VERS = 2.0
CREATION_DATE  = 
ORIGINATOR     = 

OBJECT_NAME    = SEASAT 1
OBJECT_ID      = 1978-064A
CENTER_NAME    = EARTH
REF_FRAME      = TEME
TIME_SYSTEM    = UTC
MEAN_ELEMENT_THEORY = SGP/SGP4

EPOCH          = 2025-11-13T18:22:48.865440
MEAN_MOTION    = 14.46014671
ECCENTRICITY   = .00023237
INCLINATION    = 108.0066
RA_OF_ASC_NODE = 242.2569
ARG_OF_PERICENTER = 255.0719
MEAN_ANOMALY   = 105.0169

EPHEMERIS_TYPE = 0
CLASSIFICATION_TYPE = U
NORAD_CAT_ID   = 10967
ELEMENT_SET_NO = 999
REV_AT_EPOCH   = 48975
BSTAR          = .38078966E-3
MEAN_MOTION_DOT = .1222E-4
MEAN_MOTION_DDOT = 0

CCSDS_OMM_VERS = 2.0
CREATION_DATE  = 
ORIGINATOR     = 

OBJECT_NAME    = SL-14 R/B
OBJECT_ID      = 1979-011B
CENTER_NAME    = EARTH
REF_FRAME      = TEME
TIME_SYSTEM    = UTC
MEAN_ELEMENT_THEORY = SGP/SGP4

EPOCH          = 2025-11-13T09:47:49.246368
MEAN_MOTION    = 14.91719132
ECCENTRICITY   = .0017704
INCLINATION    = 82.5260
RA_OF_ASC_NODE = 206.8575
ARG_OF_PERICENTER = 86.0634
MEAN_ANOMALY   = 274.2609

EPHEMERIS_TYPE = 0
CLASSIFICATION_TYPE = U
NORAD_CAT_ID   = 11267
ELEMENT_SET_NO = 999
REV_AT_EPOCH   = 51144
BSTAR          = .14428E-3
MEAN_MOTION_DOT = .1481E-4
MEAN_MOTION_DDOT = 0

CCSDS_OMM_VERS = 2.0
CREATION_DATE  = 
ORIGINATOR     = 

OBJECT_NAME    = SL-8 R/B
OBJECT_ID      = 1979-089B
CENTER_NAME    = EARTH
REF_FRAME      = TEME
TIME_SYSTEM    = UTC
MEAN_ELEMENT_THEORY = SGP/SGP4

EPOCH          = 2025-11-13T23:32:49.888608
MEAN_MOTION    = 14.42255625
ECCENTRICITY   = .00149856
INCLINATION    = 74.0679
RA_OF_ASC_NODE = 305.2066
ARG_OF_PERICENTER = 151.2224
MEAN_ANOMALY   = 208.9763

EPHEMERIS_TYPE = 0
CLASSIFICATION_TYPE = U
NORAD_CAT_ID   = 11574
ELEMENT_SET_NO = 999
REV_AT_EPOCH   = 41942
BSTAR          = .25952145E-3
MEAN_MOTION_DOT = .831E-5
MEAN_MOTION_DDOT = 0

CCSDS_OMM_VERS = 2.0
CREATION_DATE  = 
ORIGINATOR     = 

OBJECT_NAME    = SL-14 R/B
OBJECT_ID      = 1980-005B
CENTER_NAME    = EARTH
REF_FRAME      = TEME
TIME_SYSTEM    = UTC
MEAN_ELEMENT_THEORY = SGP/SGP4

EPOCH          = 2025-11-13T17:56:32.080992
MEAN_MOTION    = 14.90737663
ECCENTRICITY   = .00156194
INCLINATION    = 82.5158
RA_OF_ASC_NODE = 57.1890
ARG_OF_PERICENTER = 184.8683
MEAN_ANOMALY   = 175.2387

EPHEMERIS_TYPE = 0
CLASSIFICATION_TYPE = U
NORAD_CAT_ID   = 11672
ELEMENT_SET_NO = 999
REV_AT_EPOCH   = 45921
BSTAR          = .16977865E-3
MEAN_MOTION_DOT = .1695E-4
MEAN_MOTION_DDOT = 0

CCSDS_OMM_VERS = 2.0
CREATION_DATE  = 
ORIGINATOR     = 

OBJECT_NAME    = SL-8 R/B
OBJECT_ID      = 1981-003B
CENTER_NAME    = EARTH
REF_FRAME      = TEME
TIME_SYSTEM    = UTC
MEAN_ELEMENT_THEORY = SGP/SGP4

EPOCH          = 2025-11-13T15:23:13.612992
MEAN_MOTION    = 15.05565109
ECCENTRICITY   = .0282523
INCLINATION    = 82.9337
RA_OF_ASC_NODE = 36.9533
ARG_OF_PERICENTER = 220.9848
MEAN_ANOMALY   = 136.9845

EPHEMERIS_TYPE = 0
CLASSIFICATION_TYPE = U
NORAD_CAT_ID   = 12139
ELEMENT_SET_NO = 999
REV_AT_EPOCH   = 29718
BSTAR          = .12832E-2
MEAN_MOTION_DOT = .46685E-3
MEAN_MOTION_DDOT = 0

CCSDS_OMM_VERS = 2.0
CREATION_DATE  = 
ORIGINATOR     = 

OBJECT_NAME    = SL-3 R/B
OBJECT_ID      = 1981-046B
CENTER_NAME    = EARTH
REF_FRAME      = TEME
TIME_SYSTEM    = UTC
MEAN_ELEMENT_THEORY = SGP/SGP4

EPOCH          = 2025-11-13T21:28:40.122048
MEAN_MOTION    = 15.38779480
ECCENTRICITY   = .00206024
INCLINATION    = 81.2330
RA_OF_ASC_NODE = 68.4158
ARG_OF_PERICENTER = 63.3879
MEAN_ANOMALY   = 296.9469

EPHEMERIS_TYPE = 0
CLASSIFICATION_TYPE = U
NORAD_CAT_ID   = 12465
ELEMENT_SET_NO = 999
REV_AT_EPOCH   = 42060
BSTAR          = .62079483E-3
MEAN_MOTION_DOT = .2404E-3
MEAN_MOTION_DDOT = 0

CCSDS_OMM_VERS = 2.0
CREATION_DATE  = 
ORIGINATOR     = 

OBJECT_NAME    = METEOR PRIRODA
OBJECT_ID      = 1981-065A
CENTER_NAME    = EARTH
REF_FRAME      = TEME
TIME_SYSTEM    = UTC
MEAN_ELEMENT_THEORY = SGP/SGP4

EPOCH          = 2025-11-13T13:45:33.972768
MEAN_MOTION    = 16.14539865
ECCENTRICITY   = .00045
INCLINATION    = 97.4647
RA_OF_ASC_NODE = 22.3589
ARG_OF_PERICENTER = 264.1449
MEAN_ANOMALY   = 95.9324

EPHEMERIS_TYPE = 0
CLASSIFICATION_TYPE = U
NORAD_CAT_ID   = 12585
ELEMENT_SET_NO = 999
REV_AT_EPOCH   = 42612
BSTAR          = .98252E-3
MEAN_MOTION_DOT = .1215096E-1
MEAN_MOTION_DDOT = .10464E-2

CCSDS_OMM_VERS = 2.0
CREATION_DATE  = 
ORIGINATOR     = 

OBJECT_NAME    = SL-3 R/B
OBJECT_ID      = 1981-103B
CENTER_NAME    = EARTH
REF_FRAME      = TEME
TIME_SYSTEM    = UTC
MEAN_ELEMENT_THEORY = SGP/SGP4

EPOCH          = 2025-11-13T21:24:21.994272
MEAN_MOTION    = 15.19738591
ECCENTRICITY   = .0012446
INCLINATION    = 81.1610
RA_OF_ASC_NODE = 349.1290
ARG_OF_PERICENTER = 325.6042
MEAN_ANOMALY   = 34.4382

EPHEMERIS_TYPE = 0
CLASSIFICATION_TYPE = U
NORAD_CAT_ID   = 12904
ELEMENT_SET_NO = 999
REV_AT_EPOCH   = 95563
BSTAR          = .71664114E-3
MEAN_MOTION_DOT = .15387E-3
MEAN_MOTION_DDOT = 0

CCSDS_OMM_VERS = 2.0
CREATION_DATE  = 
ORIGINATOR     = 

OBJECT_NAME    = SL-3 R/B
OBJECT_ID      = 1982-013B
CENTER_NAME    = EARTH
REF_FRAME      = TEME
TIME_SYSTEM    = UTC
MEAN_ELEMENT_THEORY = SGP/SGP4

EPOCH          = 2025-11-13T21:25:19.339680
MEAN_MOTION    = 15.20725989
ECCENTRICITY   = .002211
INCLINATION    = 81.1730
RA_OF_ASC_NODE = 296.3694
ARG_OF_PERICENTER = 206.0661
MEAN_ANOMALY   = 153.9459

EPHEMERIS_TYPE = 0
CLASSIFICATION_TYPE = U
NORAD_CAT_ID   = 13068
ELEMENT_SET_NO = 999
REV_AT_EPOCH   = 38674
BSTAR          = .51628743E-3
MEAN_MOTION_DOT = .11461E-3
MEAN_MOTION_DDOT = 0

